start=new Date('2021-12-16T00:00:00.000Z').valueOf();
sats=[{"REV_AT_EPOCH":"5019","OBJECT_ID":"2021-005T","ELEMENT_SET_NO":"999","TLE_LINE2":"2 47366  53.0555 156.7146 0002194  86.0151 274.1089 15.06385232 50199","APOAPSIS":"548.778","MEAN_ANOMALY":"274.1089","TLE_LINE1":"1 47366U 21005T   21349.84164921  .00000872  00000-0  77463-4 0  9996","MEAN_MOTION":"15.06385232","TIME_SYSTEM":"UTC","RA_OF_ASC_NODE":"156.7146","PERIAPSIS":"545.739","ARG_OF_PERICENTER":"86.0151","MEAN_MOTION_DDOT":"0.0000000000000","MEAN_ELEMENT_THEORY":"SGP4","ECCENTRICITY":"0.00021940","DECAY_DATE":null,"SEMIMAJOR_AXIS":"6925.394","SITE":"AFETR","INCLINATION":"53.0555","OBJECT_NAME":"STARLINK-2081","PERIOD":"95.593","NORAD_CAT_ID":"47366","MEAN_MOTION_DOT":"0.00000872","EPHEMERIS_TYPE":"0","CLASSIFICATION_TYPE":"U","REF_FRAME":"TEME","CENTER_NAME":"EARTH","LAUNCH_DATE":"2021-01-20","EPOCH":"2021-12-15T20:11:58.491744","COUNTRY_CODE":"US","FILE":"3241542","BSTAR":"0.00007746300000","RCS_SIZE":"LARGE","OBJECT_TYPE":"PAYLOAD","GP_ID":"191798098"},{"SEMIMAJOR_AXIS":"6925.402","SITE":"AFETR","MEAN_MOTION_DDOT":"0.0000000000000","DECAY_DATE":null,"ECCENTRICITY":"0.00019980","MEAN_ELEMENT_THEORY":"SGP4","ARG_OF_PERICENTER":"90.9173","TIME_SYSTEM":"UTC","RA_OF_ASC_NODE":"156.9048","PERIAPSIS":"545.883","APOAPSIS":"548.650","MEAN_MOTION":"15.06382660","MEAN_ANOMALY":"269.2045","TLE_LINE1":"1 47367U 21005U   21349.80111130  .00000342  00000-0  41906-4 0  9992","OBJECT_ID":"2021-005U","ELEMENT_SET_NO":"999","TLE_LINE2":"2 47367  53.0540 156.9048 0001998  90.9173 269.2045 15.06382660 50195","REV_AT_EPOCH":"5019","GP_ID":"191798348","OBJECT_TYPE":"PAYLOAD","RCS_SIZE":"LARGE","EPOCH":"2021-12-15T19:13:36.016320","LAUNCH_DATE":"2021-01-20","FILE":"3241542","BSTAR":"0.00004190600000","COUNTRY_CODE":"US","CENTER_NAME":"EARTH","REF_FRAME":"TEME","EPHEMERIS_TYPE":"0","CLASSIFICATION_TYPE":"U","INCLINATION":"53.0540","PERIOD":"95.593","MEAN_MOTION_DOT":"0.00000342","NORAD_CAT_ID":"47367","OBJECT_NAME":"STARLINK-2082"},{"REF_FRAME":"TEME","CENTER_NAME":"EARTH","NORAD_CAT_ID":"47368","PERIOD":"95.591","MEAN_MOTION_DOT":"0.00004795","OBJECT_NAME":"STARLINK-2084","INCLINATION":"53.0521","CLASSIFICATION_TYPE":"U","EPHEMERIS_TYPE":"0","GP_ID":"191798600","COUNTRY_CODE":"US","FILE":"3241542","BSTAR":"0.00034043000000","EPOCH":"2021-12-15T20:38:30.959520","LAUNCH_DATE":"2021-01-20","OBJECT_TYPE":"PAYLOAD","RCS_SIZE":"LARGE","MEAN_MOTION":"15.06418199","TLE_LINE1":"1 47368U 21005V   21349.86008055  .00004795  00000-0  34043-3 0  9999","MEAN_ANOMALY":"270.6142","APOAPSIS":"548.761","PERIAPSIS":"545.555","TIME_SYSTEM":"UTC","RA_OF_ASC_NODE":"156.6277","REV_AT_EPOCH":"5020","TLE_LINE2":"2 47368  53.0521 156.6277 0002315  89.5112 270.6142 15.06418199 50200","ELEMENT_SET_NO":"999","OBJECT_ID":"2021-005V","SEMIMAJOR_AXIS":"6925.293","SITE":"AFETR","ARG_OF_PERICENTER":"89.5112","ECCENTRICITY":"0.00023150","DECAY_DATE":null,"MEAN_ELEMENT_THEORY":"SGP4","MEAN_MOTION_DDOT":"0.0000000000000"},{"GP_ID":"191799350","LAUNCH_DATE":"2021-01-20","EPOCH":"2021-12-15T20:46:27.604128","BSTAR":"-0.00000238890000","FILE":"3241542","COUNTRY_CODE":"US","RCS_SIZE":"LARGE","OBJECT_TYPE":"PAYLOAD","REF_FRAME":"TEME","CENTER_NAME":"EARTH","INCLINATION":"53.0546","OBJECT_NAME":"STARLINK-2085","PERIOD":"95.593","NORAD_CAT_ID":"47369","MEAN_MOTION_DOT":"-0.00000317","EPHEMERIS_TYPE":"0","CLASSIFICATION_TYPE":"U","SEMIMAJOR_AXIS":"6925.366","SITE":"AFETR","ARG_OF_PERICENTER":"94.5580","MEAN_MOTION_DDOT":"0.0000000000000","MEAN_ELEMENT_THEORY":"SGP4","DECAY_DATE":null,"ECCENTRICITY":"0.00022440","APOAPSIS":"548.785","MEAN_ANOMALY":"265.5665","TLE_LINE1":"1 47369U 21005W   21349.86559727 -.00000317  00000-0 -23889-5 0  9993","MEAN_MOTION":"15.06394176","TIME_SYSTEM":"UTC","RA_OF_ASC_NODE":"136.6116","PERIAPSIS":"545.677","REV_AT_EPOCH":"5048","OBJECT_ID":"2021-005W","ELEMENT_SET_NO":"999","TLE_LINE2":"2 47369  53.0546 136.6116 0002244  94.5580 265.5665 15.06394176 50485"},{"GP_ID":"191797599","RCS_SIZE":"LARGE","OBJECT_TYPE":"PAYLOAD","FILE":"3241542","COUNTRY_CODE":"US","BSTAR":"0.00011739000000","LAUNCH_DATE":"2021-01-20","EPOCH":"2021-12-15T19:45:24.359040","CENTER_NAME":"EARTH","REF_FRAME":"TEME","CLASSIFICATION_TYPE":"U","EPHEMERIS_TYPE":"0","OBJECT_NAME":"STARLINK-2086","NORAD_CAT_ID":"47370","PERIOD":"95.592","MEAN_MOTION_DOT":"0.00001468","INCLINATION":"53.0585","SITE":"AFETR","SEMIMAJOR_AXIS":"6925.324","MEAN_ELEMENT_THEORY":"SGP4","DECAY_DATE":null,"ECCENTRICITY":"0.00019150","MEAN_MOTION_DDOT":"0.0000000000000","ARG_OF_PERICENTER":"97.5173","PERIAPSIS":"545.863","TIME_SYSTEM":"UTC","RA_OF_ASC_NODE":"116.7952","TLE_LINE1":"1 47370U 21005X   21349.82319860  .00001468  00000-0  11739-3 0  9998","MEAN_ANOMALY":"262.6034","MEAN_MOTION":"15.06407926","APOAPSIS":"548.515","TLE_LINE2":"2 47370  53.0585 116.7952 0001915  97.5173 262.6034 15.06407926 50769","ELEMENT_SET_NO":"999","OBJECT_ID":"2021-005X","REV_AT_EPOCH":"5076"},{"INCLINATION":"53.0539","MEAN_MOTION_DOT":"0.00000686","PERIOD":"95.592","NORAD_CAT_ID":"47371","OBJECT_NAME":"STARLINK-2088","EPHEMERIS_TYPE":"0","CLASSIFICATION_TYPE":"U","REF_FRAME":"TEME","CENTER_NAME":"EARTH","EPOCH":"2021-12-15T20:59:45.254976","LAUNCH_DATE":"2021-01-20","BSTAR":"0.00006497800000","FILE":"3241542","COUNTRY_CODE":"US","OBJECT_TYPE":"PAYLOAD","RCS_SIZE":"LARGE","GP_ID":"191797849","REV_AT_EPOCH":"5020","OBJECT_ID":"2021-005Y","TLE_LINE2":"2 47371  53.0539 156.5622 0002151  94.3754 265.7481 15.06403349 50202","ELEMENT_SET_NO":"999","APOAPSIS":"548.693","MEAN_MOTION":"15.06403349","MEAN_ANOMALY":"265.7481","TLE_LINE1":"1 47371U 21005Y   21349.87482934  .00000686  00000-0  64978-4 0  9992","TIME_SYSTEM":"UTC","RA_OF_ASC_NODE":"156.5622","PERIAPSIS":"545.714","ARG_OF_PERICENTER":"94.3754","MEAN_MOTION_DDOT":"0.0000000000000","ECCENTRICITY":"0.00021510","DECAY_DATE":null,"MEAN_ELEMENT_THEORY":"SGP4","SITE":"AFETR","SEMIMAJOR_AXIS":"6925.338"},{"LAUNCH_DATE":"2021-01-20","EPOCH":"2021-12-15T21:44:09.127680","FILE":"3241542","COUNTRY_CODE":"US","BSTAR":"0.00008885300000","RCS_SIZE":"LARGE","OBJECT_TYPE":"PAYLOAD","GP_ID":"191799100","INCLINATION":"53.0542","OBJECT_NAME":"STARLINK-2089","PERIOD":"95.592","MEAN_MOTION_DOT":"0.00001042","NORAD_CAT_ID":"47372","EPHEMERIS_TYPE":"0","CLASSIFICATION_TYPE":"U","REF_FRAME":"TEME","CENTER_NAME":"EARTH","ARG_OF_PERICENTER":"89.3623","MEAN_MOTION_DDOT":"0.0000000000000","MEAN_ELEMENT_THEORY":"SGP4","DECAY_DATE":null,"ECCENTRICITY":"0.00024080","SEMIMAJOR_AXIS":"6925.334","SITE":"AFETR","REV_AT_EPOCH":"5027","OBJECT_ID":"2021-005Z","ELEMENT_SET_NO":"999","TLE_LINE2":"2 47372  53.0542 151.4111 0002408  89.3623 270.7641 15.06404861 50279","APOAPSIS":"548.866","TLE_LINE1":"1 47372U 21005Z   21349.90566120  .00001042  00000-0  88853-4 0  9992","MEAN_ANOMALY":"270.7641","MEAN_MOTION":"15.06404861","TIME_SYSTEM":"UTC","RA_OF_ASC_NODE":"151.4111","PERIAPSIS":"545.531"},{"REV_AT_EPOCH":"5019","TLE_LINE2":"2 47373  53.0536 156.8687 0002161  87.8052 272.3184 15.06389786 50194","ELEMENT_SET_NO":"999","OBJECT_ID":"2021-005AA","MEAN_MOTION":"15.06389786","MEAN_ANOMALY":"272.3184","TLE_LINE1":"1 47373U 21005AA  21349.80480025  .00000421  00000-0  47168-4 0  9995","APOAPSIS":"548.741","PERIAPSIS":"545.748","RA_OF_ASC_NODE":"156.8687","TIME_SYSTEM":"UTC","ARG_OF_PERICENTER":"87.8052","DECAY_DATE":null,"ECCENTRICITY":"0.00021610","MEAN_ELEMENT_THEORY":"SGP4","MEAN_MOTION_DDOT":"0.0000000000000","SEMIMAJOR_AXIS":"6925.380","SITE":"AFETR","PERIOD":"95.593","NORAD_CAT_ID":"47373","MEAN_MOTION_DOT":"0.00000421","OBJECT_NAME":"STARLINK-2092","INCLINATION":"53.0536","CLASSIFICATION_TYPE":"U","EPHEMERIS_TYPE":"0","REF_FRAME":"TEME","CENTER_NAME":"EARTH","COUNTRY_CODE":"US","FILE":"3241542","BSTAR":"0.00004716800000","EPOCH":"2021-12-15T19:18:54.741600","LAUNCH_DATE":"2021-01-20","OBJECT_TYPE":"PAYLOAD","RCS_SIZE":"LARGE","GP_ID":"191798851"},{"ARG_OF_PERICENTER":"84.0391","MEAN_ELEMENT_THEORY":"SGP4","DECAY_DATE":null,"ECCENTRICITY":"0.00023170","MEAN_MOTION_DDOT":"0.0000000000000","SITE":"AFETR","SEMIMAJOR_AXIS":"6925.391","REV_AT_EPOCH":"5020","ELEMENT_SET_NO":"999","TLE_LINE2":"2 47374  53.0522 156.5537 0002317  84.0391 276.0862 15.06386294 50206","OBJECT_ID":"2021-005AB","MEAN_ANOMALY":"276.0862","TLE_LINE1":"1 47374U 21005AB  21349.89229838  .00000602  00000-0  59357-4 0  9992","MEAN_MOTION":"15.06386294","APOAPSIS":"548.860","PERIAPSIS":"545.651","RA_OF_ASC_NODE":"156.5537","TIME_SYSTEM":"UTC","BSTAR":"0.00005935700000","FILE":"3241542","COUNTRY_CODE":"US","LAUNCH_DATE":"2021-01-20","EPOCH":"2021-12-15T21:24:54.580032","RCS_SIZE":"LARGE","OBJECT_TYPE":"PAYLOAD","GP_ID":"191798099","OBJECT_NAME":"STARLINK-2093","PERIOD":"95.593","MEAN_MOTION_DOT":"0.00000602","NORAD_CAT_ID":"47374","INCLINATION":"53.0522","CLASSIFICATION_TYPE":"U","EPHEMERIS_TYPE":"0","REF_FRAME":"TEME","CENTER_NAME":"EARTH"},{"SITE":"AFETR","SEMIMAJOR_AXIS":"6925.318","ECCENTRICITY":"0.00021780","DECAY_DATE":null,"MEAN_ELEMENT_THEORY":"SGP4","MEAN_MOTION_DDOT":"0.0000000000000","ARG_OF_PERICENTER":"92.8729","PERIAPSIS":"545.674","TIME_SYSTEM":"UTC","RA_OF_ASC_NODE":"156.4717","MEAN_MOTION":"15.06410061","TLE_LINE1":"1 47375U 21005AC  21349.89692173 -.00004547  00000-0 -28643-3 0  9996","MEAN_ANOMALY":"267.2509","APOAPSIS":"548.691","ELEMENT_SET_NO":"999","TLE_LINE2":"2 47375  53.0545 156.4717 0002178  92.8729 267.2509 15.06410061 50208","OBJECT_ID":"2021-005AC","REV_AT_EPOCH":"5020","GP_ID":"191798349","OBJECT_TYPE":"PAYLOAD","RCS_SIZE":"LARGE","BSTAR":"-0.00028643000000","FILE":"3241542","COUNTRY_CODE":"US","EPOCH":"2021-12-15T21:31:34.037472","LAUNCH_DATE":"2021-01-20","CENTER_NAME":"EARTH","REF_FRAME":"TEME","CLASSIFICATION_TYPE":"U","EPHEMERIS_TYPE":"0","NORAD_CAT_ID":"47375","PERIOD":"95.592","MEAN_MOTION_DOT":"-0.00004547","OBJECT_NAME":"STARLINK-2094","INCLINATION":"53.0545"}];
